UNKNOWN                 
1 87237U          26065.13634393  .00000282  00000+0  24537-3 0  9993
2 87237  99.2424 125.3960 0103769  59.3614 330.8365 13.91838350623368
UNKNOWN                 
1 87239U          26065.14469407  .00011135  00000+0  26361-2 0  9993
2 87239  82.8745  11.9224 0020054 124.9388 235.3699 14.53871857639981
UNKNOWN                 
1 87245U          26066.31122951  .00005427  00000+0  11273-2 0  9993
2 87245  65.6408 181.4763 0425463  78.7594 315.6313 14.16716768626183
UNKNOWN                 
1 87271U          26066.21830047  .00023561  00000+0  41566-2 0  9990
2 87271  65.7578   9.0108 0420273  28.8963 333.4703 14.23036990624380
UNKNOWN                 
1 87280U          26066.28648039  .00000399  00000+0  73593-3 0  9995
2 87280  64.6166  26.2507 0127874 244.7822 113.9916 13.48643111545259
UNKNOWN                 
1 87293U          26066.60930470  .00006389  00000+0  12131-2 0  9993
2 87293  65.8961 279.3997 0427703 313.9411  42.7109 14.19650257626037
UNKNOWN                 
1 87300U          26066.21799313  .00001971  00000+0  13760-2 0  9999
2 87300 100.1022  62.2322 0026500  68.0932 292.3042 13.99790623624939
UNKNOWN                 
1 87304U          26065.91557522  .00002020  00000+0  29886-3 0  9996
2 87304  74.0177 156.1148 0016393 105.0711 255.2278 14.75823720658899
UNKNOWN                 
1 87320U          26065.23490728  .00001322  00000+0  84097-3 0  9992
2 87320  66.5904 245.0477 0421095   1.2559 358.9462 13.70458541605189
UNKNOWN                 
1 87334U          26066.59324829  .00020661  00000+0  11376-1 0  9990
2 87334  90.0061 271.7029 0066726 331.7310  28.0259 14.10339275398591
UNKNOWN                 
1 87335U          26065.52541898  .00021477  00000+0  11641-1 0  9991
2 87335  89.9943 267.8850 0085322 314.9986  44.4306 14.10472215398778
UNKNOWN                 
1 87405U          26065.75382854  .00003329  00000+0  23503-2 0  9996
2 87405  82.7538 353.8197 0060243  86.6050 274.2007 13.96778224622882
UNKNOWN                 
1 87426U          26066.54560431  .00005832  00000+0  22019-2 0  9998
2 87426  65.7817 104.4358 0070412 256.2293 256.0250 14.30636902634716
UNKNOWN                 
1 87448U          26062.44540459  .00001518  00000+0  12352-2 0  9991
2 87448 100.4516 283.9416 0064081 355.1024   4.9496 13.90865565620459
UNKNOWN                 
1 87456U          26053.00608493  .00003756  00000+0  55206-3 0  9997
2 87456  65.7710 261.5960 0509514 328.3661  28.7697 14.15044008621577
UNKNOWN                 
1 87517U          26066.35518672  .00004838  00000+0  13224-2 0  9991
2 87517  65.8255  26.5059 0674129 266.2400 170.5998 13.62091848604435
UNKNOWN                 
1 87541U          26060.83200558  .00000129  00000+0  33234-3 0  9999
2 87541  99.6988 275.7697 0060247  71.0193 353.3780 13.35612304592596
