[{"OBJECT_NAME":"UNKNOWN","OBJECT_ID":"","EPOCH":"2026-03-06T03:16:20.115552","MEAN_MOTION":13.9183835,"ECCENTRICITY":0.0103769,"INCLINATION":99.2424,"RA_OF_ASC_NODE":125.396,"ARG_OF_PERICENTER":59.3614,"MEAN_ANOMALY":330.8365,"EPHEMERIS_TYPE":0,"CLASSIFICATION_TYPE":"U","NORAD_CAT_ID":87237,"ELEMENT_SET_NO":999,"REV_AT_EPOCH":62336,"BSTAR":0.00024537,"MEAN_MOTION_DOT":2.82e-6,"MEAN_MOTION_DDOT":0},{"OBJECT_NAME":"UNKNOWN","OBJECT_ID":"","EPOCH":"2026-03-06T03:28:21.567648","MEAN_MOTION":14.53871857,"ECCENTRICITY":0.0020054,"INCLINATION":82.8745,"RA_OF_ASC_NODE":11.9224,"ARG_OF_PERICENTER":124.9388,"MEAN_ANOMALY":235.3699,"EPHEMERIS_TYPE":0,"CLASSIFICATION_TYPE":"U","NORAD_CAT_ID":87239,"ELEMENT_SET_NO":999,"REV_AT_EPOCH":63998,"BSTAR":0.0026361,"MEAN_MOTION_DOT":0.00011135,"MEAN_MOTION_DDOT":0},{"OBJECT_NAME":"UNKNOWN","OBJECT_ID":"","EPOCH":"2026-03-07T07:28:10.229664","MEAN_MOTION":14.16716768,"ECCENTRICITY":0.0425463,"INCLINATION":65.6408,"RA_OF_ASC_NODE":181.4763,"ARG_OF_PERICENTER":78.7594,"MEAN_ANOMALY":315.6313,"EPHEMERIS_TYPE":0,"CLASSIFICATION_TYPE":"U","NORAD_CAT_ID":87245,"ELEMENT_SET_NO":999,"REV_AT_EPOCH":62618,"BSTAR":0.0011273,"MEAN_MOTION_DOT":5.427e-5,"MEAN_MOTION_DDOT":0},{"OBJECT_NAME":"UNKNOWN","OBJECT_ID":"","EPOCH":"2026-03-07T05:14:21.160608","MEAN_MOTION":14.2303699,"ECCENTRICITY":0.0420273,"INCLINATION":65.7578,"RA_OF_ASC_NODE":9.0108,"ARG_OF_PERICENTER":28.8963,"MEAN_ANOMALY":333.4703,"EPHEMERIS_TYPE":0,"CLASSIFICATION_TYPE":"U","NORAD_CAT_ID":87271,"ELEMENT_SET_NO":999,"REV_AT_EPOCH":62438,"BSTAR":0.0041566,"MEAN_MOTION_DOT":0.00023561,"MEAN_MOTION_DDOT":0},{"OBJECT_NAME":"UNKNOWN","OBJECT_ID":"","EPOCH":"2026-03-07T06:52:31.905696","MEAN_MOTION":13.48643111,"ECCENTRICITY":0.0127874,"INCLINATION":64.6166,"RA_OF_ASC_NODE":26.2507,"ARG_OF_PERICENTER":244.7822,"MEAN_ANOMALY":113.9916,"EPHEMERIS_TYPE":0,"CLASSIFICATION_TYPE":"U","NORAD_CAT_ID":87280,"ELEMENT_SET_NO":999,"REV_AT_EPOCH":54525,"BSTAR":0.00073593,"MEAN_MOTION_DOT":3.99e-6,"MEAN_MOTION_DDOT":0},{"OBJECT_NAME":"UNKNOWN","OBJECT_ID":"","EPOCH":"2026-03-07T14:37:23.926080","MEAN_MOTION":14.19650257,"ECCENTRICITY":0.0427703,"INCLINATION":65.8961,"RA_OF_ASC_NODE":279.3997,"ARG_OF_PERICENTER":313.9411,"MEAN_ANOMALY":42.7109,"EPHEMERIS_TYPE":0,"CLASSIFICATION_TYPE":"U","NORAD_CAT_ID":87293,"ELEMENT_SET_NO":999,"REV_AT_EPOCH":62603,"BSTAR":0.0012131,"MEAN_MOTION_DOT":6.389e-5,"MEAN_MOTION_DDOT":0},{"OBJECT_NAME":"UNKNOWN","OBJECT_ID":"","EPOCH":"2026-03-07T05:13:54.606432","MEAN_MOTION":13.99790623,"ECCENTRICITY":0.00265,"INCLINATION":100.1022,"RA_OF_ASC_NODE":62.2322,"ARG_OF_PERICENTER":68.0932,"MEAN_ANOMALY":292.3042,"EPHEMERIS_TYPE":0,"CLASSIFICATION_TYPE":"U","NORAD_CAT_ID":87300,"ELEMENT_SET_NO":999,"REV_AT_EPOCH":62493,"BSTAR":0.001376,"MEAN_MOTION_DOT":1.971e-5,"MEAN_MOTION_DDOT":0},{"OBJECT_NAME":"UNKNOWN","OBJECT_ID":"","EPOCH":"2026-03-06T21:58:25.699008","MEAN_MOTION":14.7582372,"ECCENTRICITY":0.0016393,"INCLINATION":74.0177,"RA_OF_ASC_NODE":156.1148,"ARG_OF_PERICENTER":105.0711,"MEAN_ANOMALY":255.2278,"EPHEMERIS_TYPE":0,"CLASSIFICATION_TYPE":"U","NORAD_CAT_ID":87304,"ELEMENT_SET_NO":999,"REV_AT_EPOCH":65889,"BSTAR":0.00029886,"MEAN_MOTION_DOT":2.02e-5,"MEAN_MOTION_DDOT":0},{"OBJECT_NAME":"UNKNOWN","OBJECT_ID":"","EPOCH":"2026-03-06T05:38:15.988992","MEAN_MOTION":13.70458541,"ECCENTRICITY":0.0421095,"INCLINATION":66.5904,"RA_OF_ASC_NODE":245.0477,"ARG_OF_PERICENTER":1.2559,"MEAN_ANOMALY":358.9462,"EPHEMERIS_TYPE":0,"CLASSIFICATION_TYPE":"U","NORAD_CAT_ID":87320,"ELEMENT_SET_NO":999,"REV_AT_EPOCH":60518,"BSTAR":0.00084097,"MEAN_MOTION_DOT":1.322e-5,"MEAN_MOTION_DDOT":0},{"OBJECT_NAME":"UNKNOWN","OBJECT_ID":"","EPOCH":"2026-03-07T14:14:16.652256","MEAN_MOTION":14.10339275,"ECCENTRICITY":0.0066726,"INCLINATION":90.0061,"RA_OF_ASC_NODE":271.7029,"ARG_OF_PERICENTER":331.731,"MEAN_ANOMALY":28.0259,"EPHEMERIS_TYPE":0,"CLASSIFICATION_TYPE":"U","NORAD_CAT_ID":87334,"ELEMENT_SET_NO":999,"REV_AT_EPOCH":39859,"BSTAR":0.011376,"MEAN_MOTION_DOT":0.00020661,"MEAN_MOTION_DDOT":0},{"OBJECT_NAME":"UNKNOWN","OBJECT_ID":"","EPOCH":"2026-03-06T12:36:36.199872","MEAN_MOTION":14.10472215,"ECCENTRICITY":0.0085322,"INCLINATION":89.9943,"RA_OF_ASC_NODE":267.885,"ARG_OF_PERICENTER":314.9986,"MEAN_ANOMALY":44.4306,"EPHEMERIS_TYPE":0,"CLASSIFICATION_TYPE":"U","NORAD_CAT_ID":87335,"ELEMENT_SET_NO":999,"REV_AT_EPOCH":39877,"BSTAR":0.011641,"MEAN_MOTION_DOT":0.00021477,"MEAN_MOTION_DDOT":0},{"OBJECT_NAME":"UNKNOWN","OBJECT_ID":"","EPOCH":"2026-03-06T18:05:30.785856","MEAN_MOTION":13.96778224,"ECCENTRICITY":0.0060243,"INCLINATION":82.7538,"RA_OF_ASC_NODE":353.8197,"ARG_OF_PERICENTER":86.605,"MEAN_ANOMALY":274.2007,"EPHEMERIS_TYPE":0,"CLASSIFICATION_TYPE":"U","NORAD_CAT_ID":87405,"ELEMENT_SET_NO":999,"REV_AT_EPOCH":62288,"BSTAR":0.0023503,"MEAN_MOTION_DOT":3.329e-5,"MEAN_MOTION_DDOT":0},{"OBJECT_NAME":"UNKNOWN","OBJECT_ID":"","EPOCH":"2026-03-07T13:05:40.212384","MEAN_MOTION":14.30636902,"ECCENTRICITY":0.0070412,"INCLINATION":65.7817,"RA_OF_ASC_NODE":104.4358,"ARG_OF_PERICENTER":256.2293,"MEAN_ANOMALY":256.025,"EPHEMERIS_TYPE":0,"CLASSIFICATION_TYPE":"U","NORAD_CAT_ID":87426,"ELEMENT_SET_NO":999,"REV_AT_EPOCH":63471,"BSTAR":0.0022019,"MEAN_MOTION_DOT":5.832e-5,"MEAN_MOTION_DDOT":0},{"OBJECT_NAME":"UNKNOWN","OBJECT_ID":"","EPOCH":"2026-03-03T10:41:22.956576","MEAN_MOTION":13.90865565,"ECCENTRICITY":0.0064081,"INCLINATION":100.4516,"RA_OF_ASC_NODE":283.9416,"ARG_OF_PERICENTER":355.1024,"MEAN_ANOMALY":4.9496,"EPHEMERIS_TYPE":0,"CLASSIFICATION_TYPE":"U","NORAD_CAT_ID":87448,"ELEMENT_SET_NO":999,"REV_AT_EPOCH":62045,"BSTAR":0.0012352,"MEAN_MOTION_DOT":1.518e-5,"MEAN_MOTION_DDOT":0},{"OBJECT_NAME":"UNKNOWN","OBJECT_ID":"","EPOCH":"2026-02-22T00:08:45.737952","MEAN_MOTION":14.15044008,"ECCENTRICITY":0.0509514,"INCLINATION":65.771,"RA_OF_ASC_NODE":261.596,"ARG_OF_PERICENTER":328.3661,"MEAN_ANOMALY":28.7697,"EPHEMERIS_TYPE":0,"CLASSIFICATION_TYPE":"U","NORAD_CAT_ID":87456,"ELEMENT_SET_NO":999,"REV_AT_EPOCH":62157,"BSTAR":0.00055206,"MEAN_MOTION_DOT":3.756e-5,"MEAN_MOTION_DDOT":0},{"OBJECT_NAME":"UNKNOWN","OBJECT_ID":"","EPOCH":"2026-03-07T08:31:28.132608","MEAN_MOTION":13.62091848,"ECCENTRICITY":0.0674129,"INCLINATION":65.8255,"RA_OF_ASC_NODE":26.5059,"ARG_OF_PERICENTER":266.24,"MEAN_ANOMALY":170.5998,"EPHEMERIS_TYPE":0,"CLASSIFICATION_TYPE":"U","NORAD_CAT_ID":87517,"ELEMENT_SET_NO":999,"REV_AT_EPOCH":60443,"BSTAR":0.0013224,"MEAN_MOTION_DOT":4.838e-5,"MEAN_MOTION_DDOT":0},{"OBJECT_NAME":"UNKNOWN","OBJECT_ID":"","EPOCH":"2026-03-01T19:58:05.282112","MEAN_MOTION":13.35612304,"ECCENTRICITY":0.0060247,"INCLINATION":99.6988,"RA_OF_ASC_NODE":275.7697,"ARG_OF_PERICENTER":71.0193,"MEAN_ANOMALY":353.378,"EPHEMERIS_TYPE":0,"CLASSIFICATION_TYPE":"U","NORAD_CAT_ID":87541,"ELEMENT_SET_NO":999,"REV_AT_EPOCH":59259,"BSTAR":0.00033234,"MEAN_MOTION_DOT":1.29e-6,"MEAN_MOTION_DDOT":0}]
